{"fetched_at":"2026-07-23T17:55:23.513Z","source":"https://celestrak.org/NORAD/elements/gp.php?NAME=CENTAURI&FORMAT=JSON","constellation":"myriota","records":[{"OBJECT_NAME":"CENTAURI-1","OBJECT_ID":"2018-099BD","EPOCH":"2026-07-23T02:24:17.514144","CLASSIFICATION_TYPE":"U","MEAN_MOTION":15.16681081,"ECCENTRICITY":0.0013721,"INCLINATION":97.4201,"RA_OF_ASC_NODE":255.0514,"ARG_OF_PERICENTER":196.1944,"MEAN_ANOMALY":163.8853,"EPHEMERIS_TYPE":0,"NORAD_CAT_ID":43809,"ELEMENT_SET_NO":999,"REV_AT_EPOCH":41794,"BSTAR":0.00029462178,"MEAN_MOTION_DOT":0.00005716,"MEAN_MOTION_DDOT":0},{"OBJECT_NAME":"CENTAURI-6","OBJECT_ID":"2024-066K","EPOCH":"2026-07-23T00:31:29.565408","CLASSIFICATION_TYPE":"U","MEAN_MOTION":15.06090324,"ECCENTRICITY":0.00018279,"INCLINATION":45.6065,"RA_OF_ASC_NODE":67.3058,"ARG_OF_PERICENTER":263.8319,"MEAN_ANOMALY":96.2357,"EPHEMERIS_TYPE":0,"NORAD_CAT_ID":59451,"ELEMENT_SET_NO":999,"REV_AT_EPOCH":12552,"BSTAR":0.00039121559,"MEAN_MOTION_DOT":0.00005562,"MEAN_MOTION_DDOT":0},{"OBJECT_NAME":"CENTAURI-7","OBJECT_ID":"2025-009DD","EPOCH":"2026-07-23T04:48:54.785376","CLASSIFICATION_TYPE":"U","MEAN_MOTION":14.98002211,"ECCENTRICITY":0.00021401,"INCLINATION":97.7081,"RA_OF_ASC_NODE":284.0218,"ARG_OF_PERICENTER":93.442,"MEAN_ANOMALY":266.7047,"EPHEMERIS_TYPE":0,"NORAD_CAT_ID":62708,"ELEMENT_SET_NO":999,"REV_AT_EPOCH":8285,"BSTAR":0.00020756083,"MEAN_MOTION_DOT":0.00002392,"MEAN_MOTION_DDOT":0},{"OBJECT_NAME":"CENTAURI-8","OBJECT_ID":"2025-009DK","EPOCH":"2026-07-23T03:54:23.281344","CLASSIFICATION_TYPE":"U","MEAN_MOTION":14.97960864,"ECCENTRICITY":0.00026491,"INCLINATION":97.7029,"RA_OF_ASC_NODE":283.7987,"ARG_OF_PERICENTER":74.073,"MEAN_ANOMALY":286.0784,"EPHEMERIS_TYPE":0,"NORAD_CAT_ID":62714,"ELEMENT_SET_NO":999,"REV_AT_EPOCH":8286,"BSTAR":0.00029540965,"MEAN_MOTION_DOT":0.00003426,"MEAN_MOTION_DDOT":0}]}
