CENTAURI-1              
1 43809U 18099BD  26204.10020271  .00005716  00000+0  29462-3 0  9992
2 43809  97.4201 255.0514 0013721 196.1944 163.8853 15.16681081417945
CENTAURI-6              
1 59451U 24066K   26204.02186997  .00005562  00000+0  39122-3 0  9995
2 59451  45.6065  67.3058 0001827 263.8319  96.2357 15.06090324125528
CENTAURI-7              
1 62708U 25009DD  26204.20063409  .00002392  00000+0  20756-3 0  9995
2 62708  97.7081 284.0218 0002140  93.4420 266.7047 14.98002211 82854
CENTAURI-8              
1 62714U 25009DK  26204.16276946  .00003426  00000+0  29541-3 0  9999
2 62714  97.7029 283.7987 0002649  74.0730 286.0784 14.97960864 82865
